[
    {
        "fname": "Ahmad",
        "lname": "Duffy",
        "tel": "(287)370-5415",
        "address": "5312 Dolor Dr",
        "city": "Small Town Girl",
        "state": "IL",
        "zip": 21995
    },
    {
        "fname": "Allana",
        "lname": "Ghormley",
        "tel": "(100)851-6230",
        "address": "9396 Massa Ave",
        "city": "Derby",
        "state": "UT",
        "zip": 66223
    },
    {
        "fname": "Bobby",
        "lname": "Kamradt",
        "tel": "(375)363-5366",
        "address": "6818 Facilisis Rd",
        "city": "Milwaukee",
        "state": "ME",
        "zip": 17356
    },
    {
        "fname": "Rania",
        "lname": "Monyer",
        "tel": "(457)714-3604",
        "address": "1674 Amet Ln",
        "city": "Forney",
        "state": "SC",
        "zip": 87635
    },
    {
        "fname": "Agnes",
        "lname": "Majewski",
        "tel": "(602)265-2047",
        "address": "1213 Magna Ave",
        "city": "Warsaw",
        "state": "UT",
        "zip": 23660
    },
    {
        "fname": "Dorothy",
        "lname": "Rosenberg",
        "tel": "(147)627-7601",
        "address": "6484 Ac Dr",
        "city": "Asheville",
        "state": "NC",
        "zip": 21858
    },
    {
        "fname": "Marsha",
        "lname": "Brazell",
        "tel": "(442)751-6481",
        "address": "4747 Velit Ct",
        "city": "Saltilo",
        "state": "AK",
        "zip": 47122
    },
    {
        "fname": "Lenora",
        "lname": "Bascoe",
        "tel": "(227)779-2977",
        "address": "6364 Nec Ave",
        "city": "Underwood",
        "state": "AL",
        "zip": 14001
    },
    {
        "fname": "Mutahir",
        "lname": "Gardner",
        "tel": "(838)878-8441",
        "address": "6404 Aliquam St",
        "city": "Oklahoma",
        "state": "NM",
        "zip": 19700
    },
    {
        "fname": "Fiaze",
        "lname": "Sawyer",
        "tel": "(544)546-2198",
        "address": "59 Placerat Ct",
        "city": "Swansea",
        "state": "CA",
        "zip": 15068
    },
    {
        "fname": "Connie",
        "lname": "Poole",
        "tel": "(529)909-4961",
        "address": "8460 Odio Dr",
        "city": "Atwater",
        "state": "NH",
        "zip": 48228
    },
    {
        "fname": "Aroterick",
        "lname": "Mahajan",
        "tel": "(988)175-0555",
        "address": "501 Ac Ln",
        "city": "Lindale",
        "state": "MN",
        "zip": 18072
    },
    {
        "fname": "Kathe",
        "lname": "Schacher",
        "tel": "(988)310-3637",
        "address": "549 Porttitor Ave",
        "city": "Hudsonville",
        "state": "WV",
        "zip": 73251
    },
    {
        "fname": "Haytham",
        "lname": "Radist",
        "tel": "(744)427-9849",
        "address": "4107 Mattis Rd",
        "city": "Houston",
        "state": "TX",
        "zip": 67965
    },
    {
        "fname": "Francine",
        "lname": "Gover",
        "tel": "(490)395-8073",
        "address": "2467 Sit Rd",
        "city": "Lafayette",
        "state": "NM",
        "zip": 13487
    },
    {
        "fname": "Clayton",
        "lname": "Dellinger",
        "tel": "(491)469-1435",
        "address": "5498 Convallis St",
        "city": "Gettysburg",
        "state": "WI",
        "zip": 19679
    },
    {
        "fname": "Kofi",
        "lname": "Ragusa",
        "tel": "(893)833-0857",
        "address": "8788 Sagittis St",
        "city": "Wabash",
        "state": "VT",
        "zip": 77432
    },
    {
        "fname": "Joel",
        "lname": "Chadwick",
        "tel": "(648)449-1858",
        "address": "4133 Etiam Ave",
        "city": "Wauwatosa",
        "state": "MD",
        "zip": 93088
    },
    {
        "fname": "Leovigildo",
        "lname": "Dykstra",
        "tel": "(155)186-4639",
        "address": "6451 Sagittis Ln",
        "city": "Tonasket",
        "state": "NJ",
        "zip": 88611
    },
    {
        "fname": "Abdul",
        "lname": "Isham",
        "tel": "(592)133-7606",
        "address": "6179 Tempor St",
        "city": "Berlin",
        "state": "NJ",
        "zip": 10923
    },
    {
        "fname": "Aely",
        "lname": "BÃ©langer",
        "tel": "(815)134-4562",
        "address": "1768 Ac St",
        "city": "Asheville",
        "state": "TX",
        "zip": 65352
    },
    {
        "fname": "Jose",
        "lname": "Hall",
        "tel": "(643)521-9297",
        "address": "6842 Molestie Rd",
        "city": "Cumberland",
        "state": "KS",
        "zip": 87994
    },
    {
        "fname": "Gregory",
        "lname": "Kamradt",
        "tel": "(249)050-2389",
        "address": "4951 Sollicitudin Ct",
        "city": "Quincy",
        "state": "PA",
        "zip": 17908
    },
    {
        "fname": "Vinit",
        "lname": "Blankenship",
        "tel": "(863)643-2778",
        "address": "9742 Curabitur St",
        "city": "Tinley Park",
        "state": "WA",
        "zip": 93168
    },
    {
        "fname": "Yan",
        "lname": "Preston",
        "tel": "(131)460-1892",
        "address": "2896 Sollicitudin Ln",
        "city": "Wabash",
        "state": "NH",
        "zip": 78606
    },
    {
        "fname": "Javier",
        "lname": "Perez",
        "tel": "(186)264-5427",
        "address": "6866 Sed Dr",
        "city": "Knoxville",
        "state": "CO",
        "zip": 87562
    },
    {
        "fname": "Han",
        "lname": "Kerr",
        "tel": "(608)786-3440",
        "address": "8207 Nullam Ct",
        "city": "Littleton",
        "state": "AR",
        "zip": 50882
    },
    {
        "fname": "Daniel",
        "lname": "Penty",
        "tel": "(452)480-8775",
        "address": "5962 Vitae Rd",
        "city": "Chester Springs",
        "state": "CO",
        "zip": 33467
    },
    {
        "fname": "Kasey",
        "lname": "Zuniga",
        "tel": "(849)828-4509",
        "address": "9936 Consequat St",
        "city": "Waterford",
        "state": "UT",
        "zip": 55043
    },
    {
        "fname": "Jasmine",
        "lname": "Haynes",
        "tel": "(774)154-5919",
        "address": "8662 Elit Ln",
        "city": "Saugus",
        "state": "WA",
        "zip": 45419
    },
    {
        "fname": "Terrell",
        "lname": "Gonshor",
        "tel": "(931)352-5569",
        "address": "3545 Massa St",
        "city": "Bremen",
        "state": "LA",
        "zip": 96223
    },
    {
        "fname": "Lawrence",
        "lname": "Basol",
        "tel": "(414)031-4055",
        "address": "5929 Vitae Rd",
        "city": "Camden",
        "state": "AR",
        "zip": 11551
    },
    {
        "fname": "Rose",
        "lname": "Helm",
        "tel": "(612)664-7771",
        "address": "5902 Tincidunt Dr",
        "city": "Salt Lake City",
        "state": "OR",
        "zip": 51283
    },
    {
        "fname": "Valery",
        "lname": "Melendez",
        "tel": "(539)318-5665",
        "address": "2020 Aliquam Dr",
        "city": "Norfolk",
        "state": "MA",
        "zip": 60315
    },
    {
        "fname": "Rania",
        "lname": "Tveter",
        "tel": "(887)885-2907",
        "address": "4182 Massa Ct",
        "city": "Bradford",
        "state": "MN",
        "zip": 40675
    },
    {
        "fname": "Karolis",
        "lname": "Bruintjes",
        "tel": "(981)309-4429",
        "address": "1078 Morbi Rd",
        "city": "Riverview",
        "state": "IL",
        "zip": 51578
    },
    {
        "fname": "Zoriy",
        "lname": "Holden",
        "tel": "(167)839-1477",
        "address": "878 Pulvinar Dr",
        "city": "York",
        "state": "FL",
        "zip": 15013
    },
    {
        "fname": "Minhajuddin",
        "lname": "Leite",
        "tel": "(999)150-6922",
        "address": "5314 Placerat Rd",
        "city": "Freehold",
        "state": "SC",
        "zip": 34652
    },
    {
        "fname": "Gene",
        "lname": "Walters",
        "tel": "(900)541-5217",
        "address": "2316 Massa Dr",
        "city": "Brandon",
        "state": "MT",
        "zip": 12837
    },
    {
        "fname": "LaDagea",
        "lname": "Nance",
        "tel": "(426)665-6562",
        "address": "4838 Lacus Ct",
        "city": "Rosenberg",
        "state": "SC",
        "zip": 53378
    },
    {
        "fname": "Han",
        "lname": "Marrinson",
        "tel": "(979)538-3123",
        "address": "6035 Id Ln",
        "city": "Durham",
        "state": "KS",
        "zip": 61446
    },
    {
        "fname": "janie",
        "lname": "Millegan",
        "tel": "(376)369-0047",
        "address": "3217 Massa Ln",
        "city": "Central Lake",
        "state": "LA",
        "zip": 82622
    },
    {
        "fname": "Kasey",
        "lname": "Speth",
        "tel": "(146)157-0022",
        "address": "3663 Ipsum Rd",
        "city": "Winchester",
        "state": "MS",
        "zip": 95641
    },
    {
        "fname": "Dalton",
        "lname": "Halligan",
        "tel": "(764)441-6913",
        "address": "3523 Sit Ln",
        "city": "Fe Warren Afb",
        "state": "OR",
        "zip": 49780
    },
    {
        "fname": "Juan",
        "lname": "Shapiro",
        "tel": "(169)136-5333",
        "address": "7619 Sed Ave",
        "city": "Saint Louis",
        "state": "MN",
        "zip": 56224
    },
    {
        "fname": "Robbin",
        "lname": "Frazier",
        "tel": "(788)200-1444",
        "address": "9794 Aenean St",
        "city": "Bellefonte",
        "state": "TX",
        "zip": 97122
    },
    {
        "fname": "Stan",
        "lname": "Planty",
        "tel": "(725)374-0231",
        "address": "6589 Tincidunt Dr",
        "city": "Moulton",
        "state": "MN",
        "zip": 13281
    },
    {
        "fname": "Rosie",
        "lname": "Fenton",
        "tel": "(415)750-0628",
        "address": "5300 Pretium St",
        "city": "Tallapoosa",
        "state": "SC",
        "zip": 49521
    },
    {
        "fname": "Lynn",
        "lname": "Michaels",
        "tel": "(798)871-7393",
        "address": "7211 Elit St",
        "city": "Richmond",
        "state": "WI",
        "zip": 26102
    },
    {
        "fname": "Aubrey",
        "lname": "Sholtz",
        "tel": "(386)856-2672",
        "address": "8110 Magna Dr",
        "city": "Tobyhanna",
        "state": "DE",
        "zip": 61130
    },
    {
        "fname": "Devon",
        "lname": "Ritchie",
        "tel": "(901)177-7794",
        "address": "6463 Sollicitudin St",
        "city": "Traverse City",
        "state": "OK",
        "zip": 76028
    },
    {
        "fname": "Dainius",
        "lname": "Suesskind",
        "tel": "(963)743-7757",
        "address": "3520 Aliquam Ln",
        "city": "Phoenix",
        "state": "FL",
        "zip": 51506
    },
    {
        "fname": "Nakesha",
        "lname": "Nagel",
        "tel": "(777)026-1132",
        "address": "870 Mi Ln",
        "city": "Fort Bragg",
        "state": "DE",
        "zip": 47438
    },
    {
        "fname": "Susen",
        "lname": "Joachim",
        "tel": "(780)335-2142",
        "address": "35 Consequat Ln",
        "city": "San Diego",
        "state": "NH",
        "zip": 15567
    },
    {
        "fname": "Yan",
        "lname": "Mills",
        "tel": "(498)550-2102",
        "address": "7025 Pretium Ct",
        "city": "Pittsburg",
        "state": "WI",
        "zip": 25845
    },
    {
        "fname": "Ritalerae",
        "lname": "Efird",
        "tel": "(822)260-6517",
        "address": "2414 Sit Dr",
        "city": "Vacaville",
        "state": "IA",
        "zip": 74488
    },
    {
        "fname": "Anita",
        "lname": "Higdon",
        "tel": "(110)931-7380",
        "address": "5364 Scelerisque Ct",
        "city": "Dayton",
        "state": "VA",
        "zip": 62422
    },
    {
        "fname": "Nadirah",
        "lname": "Herman",
        "tel": "(146)165-2897",
        "address": "1576 Nec Dr",
        "city": "Durham",
        "state": "MN",
        "zip": 71879
    },
    {
        "fname": "Ghassan",
        "lname": "Castrucci",
        "tel": "(963)445-1504",
        "address": "5363 Ipsum Ct",
        "city": "Bellefonte",
        "state": "AK",
        "zip": 17355
    },
    {
        "fname": "Eileen",
        "lname": "Lyden",
        "tel": "(156)799-4096",
        "address": "8072 Id Ave",
        "city": "Pensacola",
        "state": "AK",
        "zip": 26442
    },
    {
        "fname": "Meiyin",
        "lname": "Perez",
        "tel": "(369)712-1891",
        "address": "1239 Ipsum Rd",
        "city": "Pacific Palisades",
        "state": "NJ",
        "zip": 72981
    },
    {
        "fname": "Roland",
        "lname": "Hook",
        "tel": "(370)900-9296",
        "address": "4891 Consectetur St",
        "city": "Brighton",
        "state": "OK",
        "zip": 42216
    },
    {
        "fname": "Neha",
        "lname": "Brandenburg",
        "tel": "(654)341-8173",
        "address": "7100 Sit Ave",
        "city": "Bergen County",
        "state": "NV",
        "zip": 27954
    },
    {
        "fname": "Freddy",
        "lname": "Arivett",
        "tel": "(429)131-8601",
        "address": "7226 Vitae St",
        "city": "Racine",
        "state": "MA",
        "zip": 27492
    },
    {
        "fname": "Brett",
        "lname": "Wright",
        "tel": "(452)946-1408",
        "address": "4898 Ipsum Ct",
        "city": "Minneapolis",
        "state": "PA",
        "zip": 45727
    },
    {
        "fname": "Margaret",
        "lname": "Kasnow",
        "tel": "(359)021-2934",
        "address": "89 Mattis Ct",
        "city": "Blue Springs",
        "state": "NM",
        "zip": 58606
    },
    {
        "fname": "Rogelio",
        "lname": "Siecke",
        "tel": "(476)393-7853",
        "address": "4911 Ac Dr",
        "city": "Owensboro",
        "state": "AR",
        "zip": 90462
    },
    {
        "fname": "Don",
        "lname": "Bishop",
        "tel": "(858)748-3502",
        "address": "3325 Vestibulum Ave",
        "city": "Columbus",
        "state": "MS",
        "zip": 66604
    },
    {
        "fname": "Angela",
        "lname": "Krout",
        "tel": "(712)903-8295",
        "address": "1954 Ante Ln",
        "city": "North Kingstown",
        "state": "VT",
        "zip": 67027
    },
    {
        "fname": "Ora",
        "lname": "Nuccio",
        "tel": "(543)042-0767",
        "address": "8124 Consequat Ave",
        "city": "Flushing",
        "state": "AR",
        "zip": 95912
    },
    {
        "fname": "Tobias",
        "lname": "Boyle",
        "tel": "(382)485-2289",
        "address": "1050 Lectus St",
        "city": "Clearwater",
        "state": "IA",
        "zip": 80161
    },
    {
        "fname": "Xiumei",
        "lname": "Morin",
        "tel": "(497)789-3205",
        "address": "1087 Mattis Ave",
        "city": "Hewitt",
        "state": "NC",
        "zip": 45211
    },
    {
        "fname": "Cary",
        "lname": "Rehnke",
        "tel": "(850)519-9872",
        "address": "3389 Odio Ln",
        "city": "Frankfort",
        "state": "KY",
        "zip": 30365
    },
    {
        "fname": "Blair",
        "lname": "Batson",
        "tel": "(876)393-7694",
        "address": "6650 Ac Ln",
        "city": "Columbia",
        "state": "NH",
        "zip": 18215
    },
    {
        "fname": "Craig",
        "lname": "Schaus",
        "tel": "(875)842-6106",
        "address": "866 Sollicitudin Rd",
        "city": "Gettysburg",
        "state": "WY",
        "zip": 34041
    },
    {
        "fname": "Maureen",
        "lname": "Cahill",
        "tel": "(429)478-9241",
        "address": "7135 Hendrerit Ave",
        "city": "Hollywood",
        "state": "AL",
        "zip": 67162
    },
    {
        "fname": "Triandi",
        "lname": "Batson",
        "tel": "(326)066-2183",
        "address": "4645 Sagittis St",
        "city": "Sinton",
        "state": "CA",
        "zip": 20359
    },
    {
        "fname": "Monia",
        "lname": "Hughes",
        "tel": "(922)898-6754",
        "address": "7837 Sed Ave",
        "city": "Brooklyn",
        "state": "WI",
        "zip": 61323
    },
    {
        "fname": "Luciana",
        "lname": "Shrestha",
        "tel": "(918)910-7559",
        "address": "6525 Scelerisque Ct",
        "city": "Sebring",
        "state": "MN",
        "zip": 36631
    },
    {
        "fname": "Marva",
        "lname": "Torres",
        "tel": "(447)468-0164",
        "address": "9531 Lacus Ct",
        "city": "Clovis",
        "state": "VT",
        "zip": 21586
    },
    {
        "fname": "Serena",
        "lname": "Vera",
        "tel": "(155)249-9067",
        "address": "713 Eget St",
        "city": "Englewood",
        "state": "UT",
        "zip": 16897
    },
    {
        "fname": "Leif",
        "lname": "Odle",
        "tel": "(413)484-7073",
        "address": "8076 Elementum St",
        "city": "Wahiawa",
        "state": "MO",
        "zip": 72324
    },
    {
        "fname": "Susan",
        "lname": "Haga",
        "tel": "(853)861-4208",
        "address": "2818 Ipsum Ave",
        "city": "Snellville",
        "state": "MS",
        "zip": 48177
    },
    {
        "fname": "Harry",
        "lname": "Teixeira",
        "tel": "(989)866-4589",
        "address": "9218 Consectetur Ct",
        "city": "Alexandria",
        "state": "VT",
        "zip": 61788
    },
    {
        "fname": "Lei",
        "lname": "Arbeli",
        "tel": "(527)276-3267",
        "address": "5823 Nec Dr",
        "city": "Santa Monica",
        "state": "ID",
        "zip": 23605
    },
    {
        "fname": "Jacalyn",
        "lname": "Grossman",
        "tel": "(708)602-8494",
        "address": "432 Hendrerit Ave",
        "city": "Eldridge",
        "state": "TX",
        "zip": 98554
    },
    {
        "fname": "Latrese",
        "lname": "Burks",
        "tel": "(973)184-9197",
        "address": "5360 Sapien Dr",
        "city": "Las Vegas",
        "state": "ME",
        "zip": 53155
    },
    {
        "fname": "Dean",
        "lname": "Reilly",
        "tel": "(718)122-0805",
        "address": "4962 Et Rd",
        "city": "Underwood",
        "state": "NV",
        "zip": 80180
    },
    {
        "fname": "Braulio",
        "lname": "Clifford",
        "tel": "(280)177-5113",
        "address": "1167 Hendrerit Ct",
        "city": "Emmaus",
        "state": "WV",
        "zip": 62911
    },
    {
        "fname": "Ben",
        "lname": "Dupont",
        "tel": "(356)421-9050",
        "address": "7015 Elementum Ln",
        "city": "Stony Point",
        "state": "TN",
        "zip": 44133
    },
    {
        "fname": "Anthony",
        "lname": "Schramm",
        "tel": "(823)740-3583",
        "address": "4547 Sit Ct",
        "city": "Catlettsburg",
        "state": "AR",
        "zip": 17937
    },
    {
        "fname": "Aman",
        "lname": "Krugel",
        "tel": "(585)070-3012",
        "address": "4706 Mi Ave",
        "city": "Cassatt",
        "state": "AK",
        "zip": 74930
    },
    {
        "fname": "Roger",
        "lname": "Balulis",
        "tel": "(989)193-2952",
        "address": "163 Consequat Ct",
        "city": "Lockport",
        "state": "CO",
        "zip": 76309
    },
    {
        "fname": "Howard",
        "lname": "Lazcano",
        "tel": "(383)120-1345",
        "address": "4092 Sed Rd",
        "city": "Malta",
        "state": "AZ",
        "zip": 96883
    },
    {
        "fname": "Kofi",
        "lname": "Melvin",
        "tel": "(412)197-8917",
        "address": "3781 Dui Rd",
        "city": "Palm Harbor",
        "state": "MI",
        "zip": 86304
    },
    {
        "fname": "Sritharan",
        "lname": "Coggins",
        "tel": "(522)442-0307",
        "address": "8627 Vitae Ln",
        "city": "Ogden",
        "state": "CA",
        "zip": 36657
    },
    {
        "fname": "Janine",
        "lname": "Nicols",
        "tel": "(639)703-2291",
        "address": "6832 Turpis Dr",
        "city": "Houston",
        "state": "NY",
        "zip": 48650
    },
    {
        "fname": "Junjiang",
        "lname": "Plunkett",
        "tel": "(720)077-8637",
        "address": "4312 Mattis Ave",
        "city": "San Juan Capistrano",
        "state": "SD",
        "zip": 94999
    },
    {
        "fname": "Vacharapol",
        "lname": "Mahajan",
        "tel": "(780)888-4023",
        "address": "1603 Consectetur Rd",
        "city": "Jackson Heights",
        "state": "VT",
        "zip": 52106
    },
    {
        "fname": "Ana",
        "lname": "Harrington",
        "tel": "(530)684-6447",
        "address": "4159 Consequat Ln",
        "city": "Montreal",
        "state": "UT",
        "zip": 53126
    }
]